start=new Date('2022-04-09T00:00:00.000Z').valueOf();
sats=[{"SEMIMAJOR_AXIS":"6925.294","OBJECT_TYPE":"PAYLOAD","RCS_SIZE":"LARGE","BSTAR":"0.00000096933000","APOAPSIS":"548.205","MEAN_MOTION_DDOT":"0.0000000000000","SITE":"AFETR","MEAN_MOTION":"15.06417677","RA_OF_ASC_NODE":"245.0526","TIME_SYSTEM":"UTC","NORAD_CAT_ID":"47157","INCLINATION":"53.0554","MEAN_MOTION_DOT":"-0.00000267","OBJECT_ID":"2020-088AM","PERIAPSIS":"546.114","ECCENTRICITY":"0.00015100","EPOCH":"2022-04-08T19:32:57.113088","FILE":"3393775","COUNTRY_CODE":"US","ARG_OF_PERICENTER":"67.9187","CENTER_NAME":"EARTH","PERIOD":"95.591","MEAN_ELEMENT_THEORY":"SGP4","ELEMENT_SET_NO":"999","EPHEMERIS_TYPE":"0","REF_FRAME":"TEME","OBJECT_NAME":"STARLINK-1871","DECAY_DATE":null,"GP_ID":"200754864","LAUNCH_DATE":"2020-11-25","REV_AT_EPOCH":"7642","TLE_LINE2":"2 47157  53.0554 245.0526 0001510  67.9187 292.1962 15.06417677 76421","CLASSIFICATION_TYPE":"U","TLE_LINE1":"1 47157U 20088AM  22098.81454992 -.00000267  00000-0  96933-6 0  9997","MEAN_ANOMALY":"292.1962"},{"PERIAPSIS":"546.250","OBJECT_ID":"2020-088AN","INCLINATION":"53.0545","MEAN_MOTION_DOT":"0.00005981","NORAD_CAT_ID":"47158","TIME_SYSTEM":"UTC","RA_OF_ASC_NODE":"235.8459","MEAN_MOTION":"15.06411000","SITE":"AFETR","MEAN_MOTION_DDOT":"0.0000000000000","APOAPSIS":"548.110","BSTAR":"0.00041995000000","RCS_SIZE":"LARGE","SEMIMAJOR_AXIS":"6925.315","OBJECT_TYPE":"PAYLOAD","MEAN_ANOMALY":"301.5994","TLE_LINE1":"1 47158U 20088AN  22098.63854386  .00005981  00000-0  41995-3 0  9991","CLASSIFICATION_TYPE":"U","TLE_LINE2":"2 47158  53.0545 235.8459 0001343  58.5126 301.5994 15.06411000 76285","REV_AT_EPOCH":"7628","LAUNCH_DATE":"2020-11-25","GP_ID":"200781866","DECAY_DATE":null,"OBJECT_NAME":"STARLINK-1873","REF_FRAME":"TEME","EPHEMERIS_TYPE":"0","ELEMENT_SET_NO":"999","PERIOD":"95.591","MEAN_ELEMENT_THEORY":"SGP4","CENTER_NAME":"EARTH","ARG_OF_PERICENTER":"58.5126","COUNTRY_CODE":"US","FILE":"3393990","ECCENTRICITY":"0.00013430","EPOCH":"2022-04-08T15:19:30.189504"},{"PERIAPSIS":"322.166","OBJECT_ID":"2020-088AP","NORAD_CAT_ID":"47159","MEAN_MOTION_DOT":"0.00033194","INCLINATION":"53.0468","MEAN_MOTION":"15.82076281","RA_OF_ASC_NODE":"189.5686","TIME_SYSTEM":"UTC","SITE":"AFETR","BSTAR":"0.00016179000000","APOAPSIS":"326.977","MEAN_MOTION_DDOT":"0.0000000000000","OBJECT_TYPE":"PAYLOAD","SEMIMAJOR_AXIS":"6702.707","RCS_SIZE":"LARGE","MEAN_ANOMALY":"354.1407","TLE_LINE1":"1 47159U 20088AP  22098.51831474  .00033194  00000-0  16179-3 0  9995","REV_AT_EPOCH":"7692","TLE_LINE2":"2 47159  53.0468 189.5686 0003589   5.9657 354.1407 15.82076281 76922","CLASSIFICATION_TYPE":"U","DECAY_DATE":null,"GP_ID":"200746879","LAUNCH_DATE":"2020-11-25","REF_FRAME":"TEME","OBJECT_NAME":"STARLINK-1874","ELEMENT_SET_NO":"999","EPHEMERIS_TYPE":"0","ARG_OF_PERICENTER":"5.9657","CENTER_NAME":"EARTH","MEAN_ELEMENT_THEORY":"SGP4","PERIOD":"91.020","EPOCH":"2022-04-08T12:26:22.393536","ECCENTRICITY":"0.00035890","FILE":"3393517","COUNTRY_CODE":"US"},{"BSTAR":"0.00031629000000","APOAPSIS":"548.391","MEAN_MOTION_DDOT":"0.0000000000000","SITE":"AFETR","OBJECT_TYPE":"PAYLOAD","SEMIMAJOR_AXIS":"6925.312","RCS_SIZE":"LARGE","OBJECT_ID":"2020-088AR","PERIAPSIS":"545.963","RA_OF_ASC_NODE":"235.1049","MEAN_MOTION":"15.06411891","TIME_SYSTEM":"UTC","NORAD_CAT_ID":"47161","MEAN_MOTION_DOT":"0.00004434","INCLINATION":"53.0539","ELEMENT_SET_NO":"999","EPHEMERIS_TYPE":"0","REF_FRAME":"TEME","OBJECT_NAME":"STARLINK-1876","EPOCH":"2022-04-08T19:18:21.983040","ECCENTRICITY":"0.00017530","FILE":"3393778","COUNTRY_CODE":"US","ARG_OF_PERICENTER":"50.0439","CENTER_NAME":"EARTH","MEAN_ELEMENT_THEORY":"SGP4","PERIOD":"95.591","TLE_LINE1":"1 47161U 20088AR  22098.80442110  .00004434  00000-0  31629-3 0  9997","MEAN_ANOMALY":"310.0704","GP_ID":"200754904","DECAY_DATE":null,"LAUNCH_DATE":"2020-11-25","REV_AT_EPOCH":"7656","TLE_LINE2":"2 47161  53.0539 235.1049 0001753  50.0439 310.0704 15.06411891 76562","CLASSIFICATION_TYPE":"U"},{"OBJECT_NAME":"STARLINK-1877","REF_FRAME":"TEME","EPHEMERIS_TYPE":"0","ELEMENT_SET_NO":"999","PERIOD":"95.591","MEAN_ELEMENT_THEORY":"SGP4","ARG_OF_PERICENTER":"54.2376","CENTER_NAME":"EARTH","COUNTRY_CODE":"US","FILE":"3393990","ECCENTRICITY":"0.00016800","EPOCH":"2022-04-08T17:36:11.533248","MEAN_ANOMALY":"305.8769","TLE_LINE1":"1 47162U 20088AS  22098.73346682  .00003414  00000-0  24794-3 0  9999","CLASSIFICATION_TYPE":"U","TLE_LINE2":"2 47162  53.0542 245.4287 0001680  54.2376 305.8769 15.06410826 76166","REV_AT_EPOCH":"7616","LAUNCH_DATE":"2020-11-25","DECAY_DATE":null,"GP_ID":"200781115","SITE":"AFETR","APOAPSIS":"548.344","MEAN_MOTION_DDOT":"0.0000000000000","BSTAR":"0.00024794000000","RCS_SIZE":"LARGE","SEMIMAJOR_AXIS":"6925.315","OBJECT_TYPE":"PAYLOAD","PERIAPSIS":"546.017","OBJECT_ID":"2020-088AS","INCLINATION":"53.0542","MEAN_MOTION_DOT":"0.00003414","NORAD_CAT_ID":"47162","TIME_SYSTEM":"UTC","RA_OF_ASC_NODE":"245.4287","MEAN_MOTION":"15.06410826"},{"CLASSIFICATION_TYPE":"U","REV_AT_EPOCH":"7603","TLE_LINE2":"2 47163  53.0517 254.9792 0001466  61.6305 298.4832 15.06407288 76033","LAUNCH_DATE":"2020-11-25","DECAY_DATE":null,"GP_ID":"200781367","MEAN_ANOMALY":"298.4832","TLE_LINE1":"1 47163U 20088AT  22098.83206557  .00007262  00000-0  50584-3 0  9998","MEAN_ELEMENT_THEORY":"SGP4","PERIOD":"95.592","ARG_OF_PERICENTER":"61.6305","CENTER_NAME":"EARTH","FILE":"3393990","COUNTRY_CODE":"US","EPOCH":"2022-04-08T19:58:10.465248","ECCENTRICITY":"0.00014660","OBJECT_NAME":"STARLINK-1878","REF_FRAME":"TEME","EPHEMERIS_TYPE":"0","ELEMENT_SET_NO":"999","MEAN_MOTION_DOT":"0.00007262","INCLINATION":"53.0517","NORAD_CAT_ID":"47163","TIME_SYSTEM":"UTC","MEAN_MOTION":"15.06407288","RA_OF_ASC_NODE":"254.9792","PERIAPSIS":"546.176","OBJECT_ID":"2020-088AT","RCS_SIZE":"LARGE","OBJECT_TYPE":"PAYLOAD","SEMIMAJOR_AXIS":"6925.326","SITE":"AFETR","APOAPSIS":"548.206","MEAN_MOTION_DDOT":"0.0000000000000","BSTAR":"0.00050584000000"},{"TIME_SYSTEM":"UTC","RA_OF_ASC_NODE":"225.0442","MEAN_MOTION":"15.06439230","MEAN_MOTION_DOT":"0.00020468","INCLINATION":"53.0542","NORAD_CAT_ID":"47164","OBJECT_ID":"2020-088AU","PERIAPSIS":"545.772","RCS_SIZE":"LARGE","OBJECT_TYPE":"PAYLOAD","SEMIMAJOR_AXIS":"6925.228","APOAPSIS":"548.415","MEAN_MOTION_DDOT":"0.0000000000000","BSTAR":"0.00138750000000","SITE":"AFETR","LAUNCH_DATE":"2020-11-25","DECAY_DATE":null,"GP_ID":"200782117","CLASSIFICATION_TYPE":"U","TLE_LINE2":"2 47164  53.0542 225.0442 0001908  46.4332 313.6815 15.06439230 76454","REV_AT_EPOCH":"7645","TLE_LINE1":"1 47164U 20088AU  22098.82009310  .00020468  00000-0  13875-2 0  9990","MEAN_ANOMALY":"313.6815","COUNTRY_CODE":"US","FILE":"3393990","EPOCH":"2022-04-08T19:40:56.043840","ECCENTRICITY":"0.00019080","MEAN_ELEMENT_THEORY":"SGP4","PERIOD":"95.590","ARG_OF_PERICENTER":"46.4332","CENTER_NAME":"EARTH","EPHEMERIS_TYPE":"0","ELEMENT_SET_NO":"999","OBJECT_NAME":"STARLINK-1879","REF_FRAME":"TEME"},{"ARG_OF_PERICENTER":"61.9816","CENTER_NAME":"EARTH","MEAN_ELEMENT_THEORY":"SGP4","PERIOD":"95.592","EPOCH":"2022-04-08T19:48:53.454816","ECCENTRICITY":"0.00014880","FILE":"3393990","COUNTRY_CODE":"US","REF_FRAME":"TEME","OBJECT_NAME":"STARLINK-1880","ELEMENT_SET_NO":"999","EPHEMERIS_TYPE":"0","REV_AT_EPOCH":"7617","TLE_LINE2":"2 47165  53.0550 245.0086 0001488  61.9816 298.1324 15.06395571 76172","CLASSIFICATION_TYPE":"U","GP_ID":"200780865","DECAY_DATE":null,"LAUNCH_DATE":"2020-11-25","MEAN_ANOMALY":"298.1324","TLE_LINE1":"1 47165U 20088AV  22098.82561869 -.00000025  00000-0  17241-4 0  9994","OBJECT_TYPE":"PAYLOAD","SEMIMAJOR_AXIS":"6925.362","RCS_SIZE":"LARGE","SITE":"AFETR","BSTAR":"0.00001724100000","APOAPSIS":"548.258","MEAN_MOTION_DDOT":"0.0000000000000","NORAD_CAT_ID":"47165","MEAN_MOTION_DOT":"-0.00000025","INCLINATION":"53.0550","RA_OF_ASC_NODE":"245.0086","MEAN_MOTION":"15.06395571","TIME_SYSTEM":"UTC","PERIAPSIS":"546.197","OBJECT_ID":"2020-088AV"},{"OBJECT_TYPE":"PAYLOAD","SEMIMAJOR_AXIS":"6813.169","RCS_SIZE":"LARGE","SITE":"AFETR","BSTAR":"0.00058789000000","APOAPSIS":"437.718","MEAN_MOTION_DDOT":"0.0000000000000","NORAD_CAT_ID":"47166","MEAN_MOTION_DOT":"0.00026676","INCLINATION":"53.0496","MEAN_MOTION":"15.43757277","RA_OF_ASC_NODE":"176.9031","TIME_SYSTEM":"UTC","PERIAPSIS":"432.350","OBJECT_ID":"2020-088AW","ARG_OF_PERICENTER":"30.2086","CENTER_NAME":"EARTH","MEAN_ELEMENT_THEORY":"SGP4","PERIOD":"93.279","EPOCH":"2022-04-08T12:21:09.892512","ECCENTRICITY":"0.00039400","COUNTRY_CODE":"US","FILE":"3393517","REF_FRAME":"TEME","OBJECT_NAME":"STARLINK-1881","ELEMENT_SET_NO":"999","EPHEMERIS_TYPE":"0","REV_AT_EPOCH":"7711","TLE_LINE2":"2 47166  53.0496 176.9031 0003940  30.2086 329.9146 15.43757277 77113","CLASSIFICATION_TYPE":"U","GP_ID":"200745878","DECAY_DATE":null,"LAUNCH_DATE":"2020-11-25","MEAN_ANOMALY":"329.9146","TLE_LINE1":"1 47166U 20088AW  22098.51469783  .00026676  00000-0  58789-3 0  9993"},{"DECAY_DATE":null,"GP_ID":"200781867","LAUNCH_DATE":"2020-11-25","REV_AT_EPOCH":"7615","TLE_LINE2":"2 47167  53.0543 245.6725 0001873  53.6669 306.4493 15.06401119 76158","CLASSIFICATION_TYPE":"U","TLE_LINE1":"1 47167U 20088AX  22098.67817831  .00002527  00000-0  18849-3 0  9994","MEAN_ANOMALY":"306.4493","ECCENTRICITY":"0.00018730","EPOCH":"2022-04-08T16:16:34.605984","FILE":"3393990","COUNTRY_CODE":"US","CENTER_NAME":"EARTH","ARG_OF_PERICENTER":"53.6669","PERIOD":"95.592","MEAN_ELEMENT_THEORY":"SGP4","ELEMENT_SET_NO":"999","EPHEMERIS_TYPE":"0","REF_FRAME":"TEME","OBJECT_NAME":"STARLINK-1884","MEAN_MOTION":"15.06401119","RA_OF_ASC_NODE":"245.6725","TIME_SYSTEM":"UTC","NORAD_CAT_ID":"47167","INCLINATION":"53.0543","MEAN_MOTION_DOT":"0.00002527","OBJECT_ID":"2020-088AX","PERIAPSIS":"545.913","SEMIMAJOR_AXIS":"6925.345","OBJECT_TYPE":"PAYLOAD","RCS_SIZE":"LARGE","BSTAR":"0.00018849000000","APOAPSIS":"548.507","MEAN_MOTION_DDOT":"0.0000000000000","SITE":"AFETR"}];
